{"spkid": "20826663", "covariance": {"epoch": "2459941.5", "elements": [{"sigma": 1.31496854324903e-08, "name": "e", "title": "eccentricity", "value": ".246168455779079", "units": null, "label": "e"}, {"name": "q", "sigma": 1.53376735583197e-08, "value": ".9236614337866218", "title": "perihelion distance", "units": "au", "label": "q"}, {"label": "tp", "value": "2459995.659406582291", "title": "time of perihelion passage", "units": "TDB", "sigma": 7.13176901908671e-06, "name": "tp"}, {"units": "deg", "title": "longitude of the ascending node", "value": "152.3093557235318", "name": "om", "sigma": 8.08328598676254e-06, "label": "node"}, {"units": "deg", "title": "argument of perihelion", "value": "233.9781808449399", "sigma": 8.17769385717398e-06, "name": "w", "label": "peri"}, {"sigma": 4.25102622744966e-06, "name": "i", "title": "inclination", "value": "10.15365724744476", "units": "deg", "label": "i"}], "data": [["1.729142269734478E-16", "-1.986067288394774E-16", "1.107645862594542E-14", "1.955361479346047E-15", "1.058508413566295E-14", "4.367544105987155E-15"], ["-1.986067288394774E-16", "2.352442301815791E-16", "-9.276163805488093E-15", "-5.550037394556821E-15", "-9.929506851716838E-15", "-3.357683085313459E-15"], ["1.107645862594542E-14", "-9.276163805488093E-15", "5.086212934160504E-11", "1.807061240966212E-11", "1.759681262787399E-11", "4.13716321701103E-12"], ["1.955361479346047E-15", "-5.550037394556821E-15", "1.807061240966212E-11", "6.533951234379173E-11", "-5.162328168469226E-11", "-1.685587927028889E-11"], ["1.058508413566295E-14", "-9.929506851716838E-15", "1.759681262787399E-11", "-5.162328168469226E-11", "6.687467682166105E-11", "1.853005847426524E-11"], ["4.367544105987155E-15", "-3.357683085313459E-15", "4.13716321701103E-12", "-1.685587927028889E-11", "1.853005847426524E-11", "1.807122398646492E-11"]], "labels": ["e", "q", "tp", "node", "peri", "i"]}, "elements": [{"title": "eccentricity", "value": ".246219254915908", "units": null, "name": "e", "sigma": "1.3137E-8", "label": "e"}, {"label": "a", "value": "1.22559858989419", "title": "semi-major axis", "units": "au", "sigma": "3.6811E-9", "name": "a"}, {"value": ".9238326182644555", "title": "perihelion distance", "units": "au", "sigma": "1.5328E-8", "name": "q", "label": "q"}, {"value": "10.15383835998111", "title": "inclination; angle with respect to x-y ecliptic plane", "units": "deg", "sigma": "4.2509E-6", "name": "i", "label": "i"}, {"label": "node", "units": "deg", "title": "longitude of the ascending node", "value": "152.2820180099032", "sigma": "8.0808E-6", "name": "om"}, {"name": "w", "sigma": "8.172E-6", "value": "234.0192949287695", "title": "argument of perihelion", "units": "deg", "label": "peri"}, {"name": "ma", "sigma": "7.2112E-6", "title": "mean anomaly", "value": "155.4094140667288", "units": "deg", "label": "M"}, {"label": "tp", "sigma": "9.2717E-6", "name": "tp", "value": "2460986.558208547929", "title": "time of perihelion passage", "units": "TDB"}, {"sigma": "2.2328E-6", "name": "per", "units": "d", "title": "sidereal orbital period", "value": "495.5880271813878", "label": "period"}, {"name": "n", "sigma": "3.2727E-9", "units": "deg/d", "value": ".7264098005907599", "title": "mean motion", "label": "n"}, {"label": "Q", "value": "1.527364561523925", "title": "aphelion distance", "units": "au", "name": "ad", "sigma": "4.5874E-9"}], "epoch": "2461200.5"}